{
  "type": "FeatureCollection",
  "features": [
    {
      "type": "Feature",
      "properties": {
        "name": "Example Region"
      },
      "geometry": {
        "type": "MultiPolygon",
        "coordinates": [
          [
            [
              [44.50, 40.18],
              [44.55, 40.18],
              [44.55, 40.22],
              [44.50, 40.22],
              [44.50, 40.18]
            ]
          ],
          [
            [
              [44.60, 40.20],
              [44.65, 40.20],
              [44.65, 40.25],
              [44.60, 40.25],
              [44.60, 40.20]
            ]
          ]
        ]
      }
    }
  ]
}